NORAD_CAT_ID,OBJECT_NAME,OBJECT_TYPE,EPOCH,MEAN_MOTION,ECCENTRICITY,INCLINATION,RA_OF_ASC_NODE,ARG_OF_PERICENTER,MEAN_ANOMALY,BSTAR,MEAN_MOTION_DOT,MEAN_MOTION_DDOT,TLE_LINE0,TLE_LINE1,TLE_LINE2,SEMIMAJOR_AXIS,PERIOD,APOGEE,PERIGEE,DECAYED
49769.0,STARLINK-3208,PAYLOAD,2022-11-25 10:53:26,15.08846933,0.0001916,53.2166,127.1977,61.2375,298.8809,9.1894e-05,1.175e-05,0.0,0 STARLINK-3208,1 49769U 21115AX  22329.45377318  .00001175  00000-0  91894-4 0  9990,2 49769  53.2166 127.1977 0001916  61.2375 298.8809 15.08846933 55590,6917.859,95.437,541.05,538.399,0.0
49769.0,STARLINK-3208,PAYLOAD,2022-11-25 17:14:58,15.08842585,0.000193,53.2166,126.0084,60.7297,299.3888,5.4127e-05,5.73e-06,0.0,0 STARLINK-3208,1 49769U 21115AX  22329.71873734  .00000573  00000-0  54127-4 0  9991,2 49769  53.2166 126.0084 0001930  60.7297 299.3888 15.08842585 54524,6917.871999999999,95.437,541.073,538.4019999999998,0.0
49769.0,STARLINK-3208,PAYLOAD,2022-11-26 10:44:13,15.08844018,0.0001894,53.2174,122.7376,60.6597,299.4584,2.2866e-05,7.6e-07,0.0,0 STARLINK-3208,1 49769U 21115AX  22330.44737557  .00000076  00000-0  22866-4 0  9998,2 49769  53.2174 122.7376 0001894  60.6597 299.4584 15.08844018 54630,6917.868,95.437,541.043,538.423,0.0
49769.0,STARLINK-3208,PAYLOAD,2022-11-26 20:16:31,15.08849527,0.0001853,53.2168,120.9524,59.2214,300.896,4.188e-05,3.79e-06,0.0,0 STARLINK-3208,1 49769U 21115AX  22330.84480959  .00000379  00000-0  41880-4 0  9996,2 49769  53.2168 120.9524 0001853  59.2214 300.8960 15.08849527 55808,6917.851,95.437,540.998,538.434,0.0
49769.0,STARLINK-3208,PAYLOAD,2022-11-27 10:35:00,15.08836468,0.0001854,53.2168,118.2761,59.4247,300.6928,4.7528e-05,4.68e-06,0.0,0 STARLINK-3208,1 49769U 21115AX  22331.44097456  .00000468  00000-0  47528-4 0  9993,2 49769  53.2168 118.2761 0001854  59.4247 300.6928 15.08836468 55891,6917.891,95.438,541.039,538.474,0.0
49769.0,STARLINK-3208,PAYLOAD,2022-11-27 15:21:09,15.08835951,0.0001856,53.217,117.3839,59.1869,300.9305,3.897e-05,3.32e-06,0.0,0 STARLINK-3208,1 49769U 21115AX  22331.63969618  .00000332  00000-0  38970-4 0  9993,2 49769  53.2170 117.3839 0001856  59.1869 300.9305 15.08835951 54818,6917.893,95.438,541.0419999999998,538.474,0.0
49769.0,STARLINK-3208,PAYLOAD,2022-11-28 16:47:20,15.08838333,0.0001872,53.217,112.626,59.4816,300.636,-3.1923e-05,-7.96e-06,0.0,0 STARLINK-3208,1 49769U 21115AX  22332.69953789 -.00000796  00000-0 -31923-4 0  9999,2 49769  53.2170 112.6260 0001872  59.4816 300.6360 15.08838333 56083,6917.885,95.438,541.0459999999998,538.455,0.0
49769.0,STARLINK-3208,PAYLOAD,2022-11-29 10:16:34,15.08838349,0.0001743,53.2167,109.3547,56.5832,303.5327,5.4474e-05,5.79e-06,0.0,0 STARLINK-3208,1 49769U 21115AX  22333.42817585  .00000579  00000-0  54474-4 0  9997,2 49769  53.2167 109.3547 0001743  56.5832 303.5327 15.08838349 55084,6917.885,95.438,540.956,538.545,0.0
49769.0,STARLINK-3208,PAYLOAD,2022-11-29 13:27:20,15.0884113,0.0001746,53.2173,108.7604,59.8333,300.2832,7.920300000000001e-05,9.73e-06,0.0,0 STARLINK-3208,1 49769U 21115AX  22333.56065368  .00000973  00000-0  79203-4 0  9991,2 49769  53.2173 108.7604 0001746  59.8333 300.2832 15.08841130 55103,6917.877,95.437,540.95,538.534,0.0
49769.0,STARLINK-3208,PAYLOAD,2022-11-29 16:38:06,15.08843379,0.0001740999999999,53.217,108.1655,56.0845,304.0312,9.2813e-05,1.189e-05,0.0,0 STARLINK-3208,1 49769U 21115AX  22333.69313193  .00001189  00000-0  92813-4 0  9999,2 49769  53.2170 108.1655 0001741  56.0845 304.0312 15.08843379 56239,6917.87,95.437,540.939,538.531,0.0
49769.0,STARLINK-3208,PAYLOAD,2022-11-30 08:31:58,15.08832901,0.0001801,53.218,105.193,67.7603,292.358,6.0696e-05,6.78e-06,0.0,0 STARLINK-3208,1 49769U 21115AX  22334.35553999  .00000678  00000-0  60696-4 0  9999,2 49769  53.2180 105.1930 0001801  67.7603 292.3580 15.08832901 56337,6917.901999999999,95.438,541.013,538.521,0.0
49769.0,STARLINK-3208,PAYLOAD,2022-11-30 18:04:17,15.08837055,0.0001749,53.2167,103.4083,57.8148,302.3013,8.910899999999999e-05,1.13e-05,0.0,0 STARLINK-3208,1 49769U 21115AX  22334.75297779  .00001130  00000-0  89109-4 0  9998,2 49769  53.2167 103.4083 0001749  57.8148 302.3013 15.08837055 55288,6917.889,95.438,540.964,538.544,0.0
49769.0,STARLINK-3208,PAYLOAD,2022-12-01 08:22:45,15.08837709,0.0001967,53.2175,100.7333,47.44600000000001,312.6698,9.1264e-05,1.165e-05,0.0,0 STARLINK-3208,1 49769U 21115AX  22335.34913853  .00001165  00000-0  91264-4 0  9995,2 49769  53.2175 100.7333 0001967  47.4460 312.6698 15.08837709 55378,6917.887,95.438,541.113,538.3919999999998,0.0
49769.0,STARLINK-3208,PAYLOAD,2022-12-01 14:44:18,15.08840087,0.0001791,53.2171,99.5433,46.4005,313.7136,6.9641e-05,8.2e-06,0.0,0 STARLINK-3208,1 49769U 21115AX  22335.61409730  .00000820  00000-0  69641-4 0  9990,2 49769  53.2171  99.5433 0001791  46.4005 313.7136 15.08840087 56529,6917.88,95.438,540.984,538.506,0.0
49769.0,STARLINK-3208,PAYLOAD,2022-12-02 08:13:32,15.08843595,0.000164,53.2183,96.271,62.4607,297.6552,4.4137e-05,4.15e-06,0.0,0 STARLINK-3208,1 49769U 21115AX  22336.34273458  .00000415  00000-0  44137-4 0  9990,2 49769  53.2183  96.2710 0001640  62.4607 297.6552 15.08843595 55521,6917.869000000002,95.437,540.869,538.6,0.0
49769.0,STARLINK-3208,PAYLOAD,2022-12-02 14:35:04,15.08841415,0.000168,53.2179,95.0818,56.9162,303.1991,6.7992e-05,7.94e-06,0.0,0 STARLINK-3208,1 49769U 21115AX  22336.60769475  .00000794  00000-0  67992-4 0  9992,2 49769  53.2179  95.0818 0001680  56.9162 303.1991 15.08841415 55563,6917.876,95.437,540.903,538.5790000000002,0.0
49769.0,STARLINK-3208,PAYLOAD,2022-12-03 12:50:29,15.0882683,0.0001576999999999,53.2191,90.9188,67.0509,293.065,-0.00010377,-1.939e-05,0.0,0 STARLINK-3208,1 49769U 21115AX  22337.53506895 -.00001939  00000-0 -10377-3 0  9998,2 49769  53.2191  90.9188 0001577  67.0509 293.0650 15.08826830 56816,6917.920999999999,95.438,540.877,538.695,0.0
49769.0,STARLINK-3208,PAYLOAD,2022-12-03 19:12:02,15.08827392,0.0001648,53.2177,89.729,55.6021,304.5126,-7.6037e-05,-1.498e-05,0.0,0 STARLINK-3208,1 49769U 21115AX  22337.80002987 -.00001498  00000-0 -76037-4 0  9997,2 49769  53.2177  89.7290 0001648  55.6021 304.5126 15.08827392 55742,6917.919,95.438,540.924,538.644,0.0
49769.0,STARLINK-3208,PAYLOAD,2022-12-04 07:55:07,15.08829977,0.0001662,53.2182,87.3527,39.4301,320.6812,8.312300000000002e-08,-2.87e-06,0.0,0 STARLINK-3208,1 49769U 21115AX  22338.32994863 -.00000287  00000-0  83123-7 0  9999,2 49769  53.2182  87.3527 0001662  39.4301 320.6812 15.08829977 56936,6917.911,95.438,540.9259999999998,538.626,0.0
49769.0,STARLINK-3208,PAYLOAD,2022-12-04 14:16:39,15.088377,0.0001646,53.2176,86.1626,45.3142,314.7984,6.0688e-05,6.78e-06,0.0,0 STARLINK-3208,1 49769U 21115AX  22338.59490295  .00000678  00000-0  60688-4 0  9999,2 49769  53.2176  86.1626 0001646  45.3142 314.7984 15.08837700 55865,6917.887,95.438,540.891,538.614,0.0
49769.0,STARLINK-3208,PAYLOAD,2022-12-05 07:45:54,15.08832678,0.000169,53.2179,82.8913,50.9386,309.1756,0.00020987,3.053e-05,0.0,0 STARLINK-3208,1 49769U 21115AX  22339.32354259  .00003053  00000-0  20987-3 0  9997,2 49769  53.2179  82.8913 0001690  50.9386 309.1756 15.08832678 55977,6917.903,95.438,540.937,538.599,0.0
49769.0,STARLINK-3208,PAYLOAD,2022-12-05 14:07:26,15.0883608,0.0001773,53.2181,81.7022,54.9227,305.1931,0.0002319,3.404e-05,0.0,0 STARLINK-3208,1 49769U 21115AX  22339.58850155  .00003404  00000-0  23190-3 0  9990,2 49769  53.2181  81.7022 0001773  54.9227 305.1931 15.08836080 56017,6917.892,95.438,540.984,538.531,0.0
49769.0,STARLINK-3208,PAYLOAD,2022-12-06 06:01:17,15.08847009,0.0001764999999999,53.2182,78.7286,50.2754,309.8394,0.00019602,2.834e-05,0.0,0 STARLINK-3208,1 49769U 21115AX  22340.25089656  .00002834  00000-0  19602-3 0  9995,2 49769  53.2182  78.7286 0001765  50.2754 309.8394 15.08847009 57222,6917.859,95.437,540.945,538.503,0.0
49769.0,STARLINK-3208,PAYLOAD,2022-12-06 07:36:40,15.08844758,0.0001802,53.2202,78.4315,46.0243,314.0897,0.00011851,1.599e-05,0.0,0 STARLINK-3208,1 49769U 21115AX  22340.31713829  .00001599  00000-0  11851-3 0  9993,2 49769  53.2202  78.4315 0001802  46.0243 314.0897 15.08844758 56125,6917.866,95.437,540.977,538.484,0.0
49769.0,STARLINK-3208,PAYLOAD,2022-12-06 13:58:14,15.08830777,0.0001737,53.2188,77.2421,51.2596,308.8551,-4.6909e-05,-1.034e-05,0.0,0 STARLINK-3208,1 49769U 21115AX  22340.58211222 -.00001034  00000-0 -46909-4 0  9991,2 49769  53.2188  77.2421 0001737  51.2596 308.8551 15.08830777 56167,6917.909000000002,95.438,540.975,538.572,0.0
49769.0,STARLINK-3208,PAYLOAD,2022-12-07 15:24:24,15.08835748,0.0001709,53.2172,72.4823,44.0646,316.0482,-5.0639e-05,-1.094e-05,0.0,0 STARLINK-3208,1 49769U 21115AX  22341.64195254 -.00001094  00000-0 -50639-4 0  9996,2 49769  53.2172  72.4823 0001709  44.0646 316.0482 15.08835748 57436,6917.893,95.438,540.941,538.576,0.0
49769.0,STARLINK-3208,PAYLOAD,2022-12-08 05:42:51,15.08846076,0.0001683,53.2175,69.8053,40.4186,319.6931,0.00020611,2.994e-05,0.0,0 STARLINK-3208,1 49769U 21115AX  22342.23809992  .00002994  00000-0  20611-3 0  9997,2 49769  53.2175  69.8053 0001683  40.4186 319.6931 15.08846076 57528,6917.861999999999,95.437,540.891,538.563,0.0
49769.0,STARLINK-3208,PAYLOAD,2022-12-08 12:04:24,15.08848393,0.0001665999999999,53.2179,68.6175,43.0034,317.1088,0.00025739,3.812e-05,0.0,0 STARLINK-3208,1 49769U 21115AX  22342.50306149  .00003812  00000-0  25739-3 0  9999,2 49769  53.2179  68.6175 0001666  43.0034 317.1088 15.08848393 56457,6917.855,95.437,540.872,538.567,0.0
49769.0,STARLINK-3208,PAYLOAD,2022-12-08 23:12:05,15.08863932,0.0001631999999999,53.2181,66.5353,45.1204,314.992,0.0005174,7.961e-05,0.0,0 STARLINK-3208,1 49769U 21115AX  22342.96673111  .00007961  00000-0  51740-3 0  9995,2 49769  53.2181  66.5353 0001632  45.1204 314.9920 15.08863932 57637,6917.807,95.436,540.8009999999998,538.543,0.0
